STARLINK-31774          
1 59622U 24080X   26068.31303101 -.00000576  00000+0 -11386-4 0  9994
2 59622  43.0047  36.6914 0001499 262.6792  97.3889 15.27576945104516
FLOCK 4G-5              
1 62663U 25009BG  26068.45638436  .00011278  00000+0  40688-3 0  9997
2 62663  97.4058 151.2478 0002094 314.5072  45.5996 15.28679529 63699
